CREW DRAGON 12          
1 67796U 26031A   26066.25459274  .00014982  00000+0  28421-3 0  9998
2 67796  51.6318  84.3952 0008142 166.2106 193.9106 15.48501510555834
